IHI-SAT2                
1 66772U 25276DL  26068.72963171  .00008239  00000+0  38429-3 0  9998
2 66772  97.4302 144.2140 0001870 154.4631 205.6697 15.20112566 15337
LEMUR-2-LAILA           
1 66776U 25276DQ  26068.72945049  .00007609  00000+0  35559-3 0  9997
2 66776  97.4243 144.1425 0002283 132.0154 228.1276 15.20071210 15334
